NORAD_CAT_ID,OBJECT_NAME,OBJECT_TYPE,EPOCH,MEAN_MOTION,ECCENTRICITY,INCLINATION,RA_OF_ASC_NODE,ARG_OF_PERICENTER,MEAN_ANOMALY,BSTAR,MEAN_MOTION_DOT,MEAN_MOTION_DDOT,TLE_LINE0,TLE_LINE1,TLE_LINE2,SEMIMAJOR_AXIS,PERIOD,APOGEE,PERIGEE,DECAYED
51896.0,STARLINK-3593,PAYLOAD,2023-08-04 10:35:17,15.08819554,0.0001428,53.2173,295.9722,117.4643,242.6494,0.0002115,3.078e-05,0.0,0 STARLINK-3593,1 51896U 22022AW  23216.44117965  .00003078  00000-0  21150-3 0  9998,2 51896  53.2173 295.9722 0001428 117.4643 242.6494 15.08819554 80149,6917.943,95.439,540.796,538.82,0.0
51896.0,STARLINK-3593,PAYLOAD,2023-08-04 12:10:40,15.0883501,0.0001173,53.2172,295.6758,108.527,251.585,-1.0889e-05,-4.61e-06,0.0,0 STARLINK-3593,1 51896U 22022AW  23216.50741868 -.00000461  00000-0 -10889-4 0  9993,2 51896  53.2172 295.6758 0001173 108.5270 251.5850 15.08835010 80159,6917.896,95.438,540.572,538.949,0.0
51896.0,STARLINK-3593,PAYLOAD,2023-08-05 10:26:03,15.08853181,0.0001143,53.2172,291.5134,103.992,256.12,0.00010989,1.462e-05,0.0,0 STARLINK-3593,1 51896U 22022AW  23217.43476454  .00001462  00000-0  10989-3 0  9992,2 51896  53.2172 291.5134 0001143 103.9920 256.1200 15.08853181 80294,6917.84,95.437,540.496,538.914,0.0
51896.0,STARLINK-3593,PAYLOAD,2023-08-06 03:55:19,15.0883345,0.0001393,53.2174,288.2503,120.1255,239.9876,5.3836e-05,5.69e-06,0.0,0 STARLINK-3593,1 51896U 22022AW  23218.16341940  .00000569  00000-0  53836-4 0  9990,2 51896  53.2174 288.2503 0001393 120.1255 239.9876 15.08833450 80406,6917.9,95.438,540.729,538.802,0.0
51896.0,STARLINK-3593,PAYLOAD,2023-08-06 11:52:16,15.08823083,0.0001431,53.2179,286.7609,120.3551,239.7582,-2.8943e-05,-7.48e-06,0.0,0 STARLINK-3593,1 51896U 22022AW  23218.49463074 -.00000748  00000-0 -28943-4 0  9991,2 51896  53.2179 286.7609 0001431 120.3551 239.7582 15.08823083 80453,6917.932,95.439,540.787,538.807,0.0
51896.0,STARLINK-3593,PAYLOAD,2023-08-06 21:24:34,15.08831907,0.0001135,53.2172,284.9749,100.5127,259.5993,7.3006e-07,-2.76e-06,0.0,0 STARLINK-3593,1 51896U 22022AW  23218.89206692 -.00000276  00000-0  73006-6 0  9993,2 51896  53.2172 284.9749 0001135 100.5127 259.5993 15.08831907 80518,6917.905,95.438,540.555,538.985,0.0
51896.0,STARLINK-3593,PAYLOAD,2023-08-07 08:32:16,15.08845061,0.0001292,53.2182,282.8948,109.212,250.9012,-1.0275e-05,-4.51e-06,0.0,0 STARLINK-3593,1 51896U 22022AW  23219.35574085 -.00000451  00000-0 -10275-4 0  9992,2 51896  53.2182 282.8948 0001292 109.2120 250.9012 15.08845061 80580,6917.865,95.437,540.624,538.836,0.0
51896.0,STARLINK-3593,PAYLOAD,2023-08-08 11:33:49,15.08839937,9.74e-05,53.2163,277.8367,98.8851,261.2252,0.00016084,2.273e-05,0.0,0 STARLINK-3593,1 51896U 22022AW  23220.48181987  .00002273  00000-0  16084-3 0  9998,2 51896  53.2163 277.8367 0000974  98.8851 261.2252 15.08839937 80753,6917.881,95.438,540.419,539.072,0.0
51896.0,STARLINK-3593,PAYLOAD,2023-08-09 09:49:13,15.08837828,0.0001033,53.216,273.6721,91.2458,268.8652,3.615e-05,2.88e-06,0.0,0 STARLINK-3593,1 51896U 22022AW  23221.40918652  .00000288  00000-0  36150-4 0  9999,2 51896  53.2160 273.6721 0001033  91.2458 268.8652 15.08837828 80894,6917.887,95.438,540.467,539.037,0.0
51896.0,STARLINK-3593,PAYLOAD,2023-08-10 11:15:23,15.08831519,0.0001164,53.2162,268.9154,97.3768,262.7356,0.00021383,3.116e-05,0.0,0 STARLINK-3593,1 51896U 22022AW  23222.46902305  .00003116  00000-0  21383-3 0  9998,2 51896  53.2162 268.9154 0001164  97.3768 262.7356 15.08831519 81053,6917.906,95.438,540.577,538.966,0.0
51896.0,STARLINK-3593,PAYLOAD,2023-08-12 09:21:34,15.08837752,0.0001145,53.2154,260.2919,89.0814,271.0309,-3.1816e-06,-3.38e-06,0.0,0 STARLINK-3593,1 51896U 22022AW  23224.38998765 -.00000338  00000-0 -31816-5 0  9995,2 51896  53.2154 260.2919 0001145  89.0814 271.0309 15.08837752 81345,6917.887,95.438,540.544,538.96,0.0
51896.0,STARLINK-3593,PAYLOAD,2023-08-13 10:47:45,15.08838769,0.0001164,53.2151,255.5338,89.2774,270.8351,2.3376e-05,8.4e-07,0.0,0 STARLINK-3593,1 51896U 22022AW  23225.44982705  .00000084  00000-0  23376-4 0  9997,2 51896  53.2151 255.5338 0001164  89.2774 270.8351 15.08838769 81503,6917.884,95.438,540.554,538.944,0.0
51896.0,STARLINK-3593,PAYLOAD,2023-08-14 18:35:27,15.08838502,0.000119,53.2162,249.5858,85.9784,274.1344,3.4671e-05,2.64e-06,0.0,0 STARLINK-3593,1 51896U 22022AW  23226.77462874  .00000264  00000-0  34671-4 0  9994,2 51896  53.2162 249.5858 0001190  85.9784 274.1344 15.08838502 81704,6917.885,95.438,540.573,538.927,0.0
51896.0,STARLINK-3593,PAYLOAD,2023-08-16 10:20:06,15.08840271,0.0001155,53.2157,242.1519,84.5443,275.5681,3.7054e-05,3.02e-06,0.0,0 STARLINK-3593,1 51896U 22022AW  23228.43063047  .00000302  00000-0  37054-4 0  9999,2 51896  53.2157 242.1519 0001155  84.5443 275.5681 15.08840271 81951,6917.88,95.438,540.544,538.946,0.0
51896.0,STARLINK-3593,PAYLOAD,2023-08-17 18:07:48,15.08842036,0.0001128,53.2155,236.2044,85.062,275.0501,6.615e-05,7.65e-06,0.0,0 STARLINK-3593,1 51896U 22022AW  23229.75542686  .00000765  00000-0  66150-4 0  9998,2 51896  53.2155 236.2044 0001128  85.0620 275.0501 15.08842036 82159,6917.874,95.437,540.52,538.959,0.0
51896.0,STARLINK-3593,PAYLOAD,2023-08-18 03:40:08,15.088354,0.0001177,53.2156,234.4207,84.9107,275.2019,1.9691e-05,2.6e-07,0.0,0 STARLINK-3593,1 51896U 22022AW  23230.15287293  .00000026  00000-0  19691-4 0  9992,2 51896  53.2156 234.4207 0001177  84.9107 275.2019 15.08835400 82213,6917.894,95.438,540.574,538.945,0.0
51896.0,STARLINK-3593,PAYLOAD,2023-08-18 11:37:03,15.08841967,0.0001178,53.2156,232.9328,92.046,268.0667,4.1516e-05,3.73e-06,0.0,0 STARLINK-3593,1 51896U 22022AW  23230.48406779  .00000373  00000-0  41516-4 0  9996,2 51896  53.2156 232.9328 0001178  92.0460 268.0667 15.08841967 82262,6917.874,95.437,540.554,538.924,0.0
51896.0,STARLINK-3593,PAYLOAD,2023-08-20 03:21:42,15.08835806,0.0001234,53.2153,225.499,95.0801,265.0332,4.0449e-05,3.56e-06,0.0,0 STARLINK-3593,1 51896U 22022AW  23232.14007214  .00000356  00000-0  40449-4 0  9997,2 51896  53.2153 225.4990 0001234  95.0801 265.0332 15.08835806 82515,6917.893,95.438,540.612,538.905,0.0
51896.0,STARLINK-3593,PAYLOAD,2023-08-21 00:01:43,15.08830725,0.0001336,53.2158,221.6325,98.5867,261.5276,4.6607e-06,-2.14e-06,0.0,0 STARLINK-3593,1 51896U 22022AW  23233.00119860 -.00000214  00000-0  46607-5 0  9991,2 51896  53.2158 221.6325 0001336  98.5867 261.5276 15.08830725 82640,6917.909,95.438,540.698,538.85,0.0
51896.0,STARLINK-3593,PAYLOAD,2023-08-21 09:34:02,15.08837758,0.0001256,53.2162,219.8495,89.8176,270.296,3.3509e-05,2.45e-06,0.0,0 STARLINK-3593,1 51896U 22022AW  23233.39863486  .00000245  00000-0  33509-4 0  9992,2 51896  53.2162 219.8495 0001256  89.8176 270.2960 15.08837758 82706,6917.887,95.438,540.621,538.883,0.0
51896.0,STARLINK-3593,PAYLOAD,2023-08-23 10:50:59,15.08841607,0.0001319,53.2163,210.6305,89.926,270.1884,5.4692e-05,5.83e-06,0.0,0 STARLINK-3593,1 51896U 22022AW  23235.45207584  .00000583  00000-0  54692-4 0  9993,2 51896  53.2163 210.6305 0001319  89.9260 270.1884 15.08841607 83018,6917.875,95.437,540.653,538.828,0.0
51896.0,STARLINK-3593,PAYLOAD,2023-08-24 10:41:46,15.08837377,0.0001459,53.2167,206.1672,88.8731,271.2429,1.4741e-05,-5.3e-07,0.0,0 STARLINK-3593,1 51896U 22022AW  23236.44568259 -.00000053  00000-0  14741-4 0  9996,2 51896  53.2167 206.1672 0001459  88.8731 271.2429 15.08837377 83167,6917.888,95.438,540.763,538.744,0.0
51896.0,STARLINK-3593,PAYLOAD,2023-08-25 02:35:36,15.08855236,0.000131,53.2166,203.1965,88.123,271.9912,8.8811e-05,1.126e-05,0.0,0 STARLINK-3593,1 51896U 22022AW  23237.10806622  .00001126  00000-0  88811-4 0  9999,2 51896  53.2166 203.1965 0001310  88.1230 271.9912 15.08855236 83260,6917.834,95.437,540.605,538.793,0.0
51896.0,STARLINK-3593,PAYLOAD,2023-08-25 07:21:45,15.08857937,0.0001446,53.2167,202.3024,87.6974,272.4184,0.00015501,2.181e-05,0.0,0 STARLINK-3593,1 51896U 22022AW  23237.30678042  .00002181  00000-0  15501-3 0  9991,2 51896  53.2167 202.3024 0001446  87.6974 272.4184 15.08857937 83297,6917.826,95.436,540.691,538.69,0.0
51896.0,STARLINK-3593,PAYLOAD,2023-08-25 21:40:18,15.08801819,0.0001005,53.2162,199.6284,87.796,272.3147,-0.00019788,-3.432e-05,0.0,0 STARLINK-3593,1 51896U 22022AW  23237.90299312 -.00003432  00000-0 -19788-3 0  9999,2 51896  53.2162 199.6284 0001005  87.7960 272.3147 15.08801819 83381,6917.997,95.44,540.557,539.167,0.0
51896.0,STARLINK-3593,PAYLOAD,2023-08-26 00:51:14,15.08689381,0.0001389,53.2164,199.0334,23.3597,336.7458,-0.0012164,-0.00019515,0.0,0 STARLINK-3593,1 51896U 22022AW  23238.03557983 -.00019515  00000-0 -12164-2 0  9994,2 51896  53.2164 199.0334 0001389  23.3597 336.7458 15.08689381 83401,6918.341,95.447,541.167,539.245,0.0
51896.0,STARLINK-3593,PAYLOAD,2023-08-26 07:12:58,15.08563326,0.0001647,53.216,197.846,89.6911,270.4269,-0.0021908,-0.00034725,0.0,0 STARLINK-3593,1 51896U 22022AW  23238.30068096 -.00034725  00000-0 -21908-2 0  9992,2 51896  53.2160 197.8460 0001647  89.6911 270.4269 15.08563326 83443,6918.726,95.455,541.731,539.452,0.0
51896.0,STARLINK-3593,PAYLOAD,2023-08-26 13:34:45,15.08427545,0.000106,53.2163,196.6572,112.7089,247.4015,-0.003172,-0.00049856,0.0,0 STARLINK-3593,1 51896U 22022AW  23238.56580542 -.00049856  00000-0 -31720-2 0  9999,2 51896  53.2163 196.6572 0001060 112.7089 247.4015 15.08427545 83489,6919.141,95.464,541.74,540.273,0.0
51896.0,STARLINK-3593,PAYLOAD,2023-08-27 00:42:57,15.08200559,0.0001893,53.2168,194.577,141.5533,218.5594,-0.0047584,-0.00073942,0.0,0 STARLINK-3593,1 51896U 22022AW  23239.02982663 -.00073942  00000-0 -47584-2 0  9999,2 51896  53.2168 194.5770 0001893 141.5533 218.5594 15.08200559 83552,6919.836,95.478,543.011,540.391,0.0
51896.0,STARLINK-3593,PAYLOAD,2023-08-27 07:04:55,15.07982138,0.0001215,53.2167,193.3902,62.0633,298.0482,-0.0062153,-0.00095627,0.0,0 STARLINK-3593,1 51896U 22022AW  23239.29509177 -.00095627  00000-0 -62153-2 0  9996,2 51896  53.2167 193.3902 0001215  62.0633 298.0482 15.07982138 83593,6920.504,95.492,543.21,541.528,0.0
